[{"OBJECT_NAME":"ION SCV-004","OBJECT_ID":"2022-002K","EPOCH":"2026-03-09T16:32:03.244416","MEAN_MOTION":15.29369331,"ECCENTRICITY":0.00072157,"INCLINATION":97.2961,"RA_OF_ASC_NODE":128.2294,"ARG_OF_PERICENTER":1.6783,"MEAN_ANOMALY":358.448,"EPHEMERIS_TYPE":0,"CLASSIFICATION_TYPE":"U","NORAD_CAT_ID":50993,"ELEMENT_SET_NO":999,"REV_AT_EPOCH":23008,"BSTAR":0.00023198467,"MEAN_MOTION_DOT":6.538e-5,"MEAN_MOTION_DDOT":0},{"OBJECT_NAME":"STARLINK-31615","OBJECT_ID":"2024-064R","EPOCH":"2026-03-08T05:48:26.860320","MEAN_MOTION":15.27584219,"ECCENTRICITY":0.00011088,"INCLINATION":43.0017,"RA_OF_ASC_NODE":57.4665,"ARG_OF_PERICENTER":254.627,"MEAN_ANOMALY":105.4459,"EPHEMERIS_TYPE":0,"CLASSIFICATION_TYPE":"U","NORAD_CAT_ID":59413,"ELEMENT_SET_NO":999,"REV_AT_EPOCH":10908,"BSTAR":7.4625094e-5,"MEAN_MOTION_DOT":1.792e-5,"MEAN_MOTION_DDOT":0}]
