ION SCV-004             
1 50993U 22002K   26068.68892644  .00006538  00000+0  23198-3 0  9998
2 50993  97.2961 128.2294 0007216   1.6783 358.4480 15.29369331230088
STARLINK-31615          
1 59413U 24064R   26067.24197755  .00001792  00000+0  74625-4 0  9995
2 59413  43.0017  57.4665 0001108 254.6270 105.4459 15.27584219109088
